[{"OBJECT_NAME":"COSMO-SKYMED 3","OBJECT_ID":"2008-054A","EPOCH":"2026-03-09T22:03:15.183936","MEAN_MOTION":15.06259488,"ECCENTRICITY":0.00143526,"INCLINATION":97.8419,"RA_OF_ASC_NODE":285.8111,"ARG_OF_PERICENTER":240.3641,"MEAN_ANOMALY":119.6157,"EPHEMERIS_TYPE":0,"CLASSIFICATION_TYPE":"U","NORAD_CAT_ID":33412,"ELEMENT_SET_NO":999,"REV_AT_EPOCH":94199,"BSTAR":0.00061875413,"MEAN_MOTION_DOT":9.042e-5,"MEAN_MOTION_DDOT":0},{"OBJECT_NAME":"STARLINK-3972","OBJECT_ID":"2022-053P","EPOCH":"2026-03-09T12:21:00.546624","MEAN_MOTION":15.08837575,"ECCENTRICITY":0.00013707,"INCLINATION":53.2168,"RA_OF_ASC_NODE":154.9067,"ARG_OF_PERICENTER":100.9013,"MEAN_ANOMALY":259.2133,"EPHEMERIS_TYPE":0,"CLASSIFICATION_TYPE":"U","NORAD_CAT_ID":52669,"ELEMENT_SET_NO":999,"REV_AT_EPOCH":21101,"BSTAR":-5.471722e-6,"MEAN_MOTION_DOT":-3.75e-6,"MEAN_MOTION_DDOT":0}]
